CUTE-1 (CO-55)          
1 27844U 03031E   26139.02455345  .00000182  00000+0  97947-4 0  9991
2 27844  98.6744 147.9502 0008279 270.3136  89.7095 14.24315983187522
CUBESAT XI-IV (CO-57)   
1 27848U 03031J   26138.29557300  .00000143  00000+0  81891-4 0  9995
2 27848  98.6776 146.9670 0008279 294.1039  65.9273 14.23603354187123
CUBESAT XI-V            
1 28895U 05043F   26138.36943048  .00000767  00000+0  12888-3 0  9990
2 28895  98.2951 293.3724 0012904 302.7751  57.2212 14.72544221 97365
CUTE-1.7+APD II (CO-65) 
1 32785U 08021C   26139.21050791  .00003070  00000+0  19744-3 0  9999
2 32785  97.8271 120.0366 0010520 121.5393 238.6864 15.09146991980820
CANX-2                  
1 32790U 08021H   26138.44559663  .00001678  00000+0  12145-3 0  9991
2 32790  97.8621 117.6550 0011514 137.7182 222.4934 15.05378382980333
SEEDS II (CO-66)        
1 32791U 08021J   26138.94317955  .00012123  00000+0  39897-3 0  9993
2 32791  97.7522 135.4711 0004771  72.6344 287.5418 15.31658311982810
SWISSCUBE               
1 35932U 09051B   26138.95381580  .00000632  00000+0  13468-3 0  9991
2 35932  98.4055  46.3316 0005794 313.4304  46.6414 14.62418523884888
BEESAT-1                
1 35933U 09051C   26138.46894893  .00000509  00000+0  11221-3 0  9992
2 35933  98.3984  45.5356 0004642 334.4729  25.6242 14.61666380884846
ITUPSAT1                
1 35935U 09051E   26139.18753492  .00000454  00000+0  10393-3 0  9991
2 35935  98.4068  45.4878 0006997 339.3599  20.7317 14.60391532884509
TISAT 1                 
1 36799U 10035E   26139.09995111  .00013093  00000+0  44659-3 0  9995
2 36799  98.0707  83.1000 0002968  41.9557 318.1909 15.30497332863257
AEROCUBE 4.5A           
1 38767U 12048K   26139.10192407  .00136745  00000+0  73468-3 0  9997
2 38767  64.6280 131.9106 0018380 216.4211 143.5694 15.79365629368043
STRAND-1                
1 39090U 13009E   26139.02355177  .00000159  00000+0  67750-4 0  9998
2 39090  98.3916 319.9771 0007841 325.2771  34.7904 14.37144285692871
BRITE-AUSTRIA           
1 39091U 13009F   26139.02389758  .00000100  00000+0  48734-4 0  9998
2 39091  98.3987 319.1827 0009556 333.7343  26.3358 14.36529341692866
NEE-01 PEGASO           
1 39151U 13018B   26139.12307939  .00001396  00000+0  13836-3 0  9999
2 39151  98.1186 282.3228 0011357 258.1981 101.7964 14.93499415706361
POPACS 2                
1 39269U 13055E   26139.11484723  .00009433  00000+0  16217-3 0  9992
2 39269  80.9908 177.4570 0418562 287.3188  68.2651 14.90525258658883
POPACS 3                
1 39270U 13055F   26138.77045827  .00011402  00000+0  27095-3 0  9998
2 39270  81.0018 261.0605 0554772 159.4470 203.0046 14.55381824634279
ZACUBE-1 (TSHEPISOSAT)  
1 39417U 13066B   26139.14344683  .00002951  00000+0  23245-3 0  9999
2 39417  97.8123 101.3230 0041065 350.4398   9.6039 15.00943817676378
WNISAT-1                
1 39423U 13066H   26138.35869375  .00000283  00000+0  60820-4 0  9995
2 39423  97.7165 289.6383 0162304 326.2807  32.8149 14.58021448662380
TRITON-1                
1 39427U 13066M   26139.18856547  .00002427  00000+0  29527-3 0  9998
2 39427  97.8272  49.6564 0089494 329.9370  29.6722 14.81572202669790
GOMX-1                  
1 39430U 13066Q   26139.17665532  .00001315  00000+0  20361-3 0  9995
2 39430  97.6495 341.4694 0128970 170.0189 190.3626 14.69332868665650
CUBEBUG-2 (LO-74)       
1 39440U 13066AA  26139.18963508  .00002048  00000+0  19364-3 0  9996
2 39440  97.8896  88.0549 0059252 122.6964 237.9988 14.93512493672660
NEE-02 KRYSAOR          
1 39441U 13066AB  26138.59227368  .00000939  00000+0  10841-3 0  9996
2 39441  97.8885  78.0238 0066537 165.4651 194.8499 14.86493907671808
FUNCUBE-1 (AO-73)       
1 39444U 13066AE  26138.48756626  .00003751  00000+0  23785-3 0  9997
2 39444  97.8264 109.3260 0034896 306.8242  52.9786 15.09070822675186
UWE-3                   
1 39446U 13066AG  26138.60277945  .00002656  00000+0  23180-3 0  9997
2 39446  97.8682  94.4880 0050461  59.2487 301.3689 14.96745846673158
BRITE-CA1 (TORONTO)     
1 40020U 14033L   26139.09315404  .00000400  00000+0  67986-4 0  9997
2 40020  97.9699 268.5648 0078821  11.1029 349.1895 14.72633019637939
DUCHIFAT-1              
1 40021U 14033M   26139.12335227  .00061236  00000+0  78320-3 0  9994
2 40021  98.0491 194.3373 0006207 171.2568 188.8795 15.59011193651211
NANOSATC-BR1            
1 40024U 14033Q   26139.05468742  .00010544  00000+0  36092-3 0  9994
2 40024  98.0737 168.8823 0001647 285.8827  74.2230 15.30447318649520
QB50P1                  
1 40025U 14033R   26138.94887521  .00005296  00000+0  26586-3 0  9997
2 40025  98.0973 148.0560 0007740 337.2109  22.8778 15.17763555648597
QB50P2                  
1 40032U 14033Y   26138.70778129  .00004027  00000+0  22122-3 0  9995
2 40032  98.0753 133.7642 0005644 277.6790  82.3799 15.14744084648202
PERSEUS-M2              
1 40037U 14033AD  26139.15796587  .00001660  00000+0  15552-3 0  9997
2 40037  97.9963  89.1131 0013249  41.7962 318.4268 14.95416750646448
